RADARSAT-2              
1 32382U 07061A   26193.50721000  .00000149  00000+0  74555-4 0  9991
2 32382  98.5783 200.0779 0001333  83.6793 276.4541 14.29983240969578
