{"fetched_at":"2026-07-12T17:33:00.376Z","source":"https://celestrak.org/NORAD/elements/gp.php?NAME=RADARSAT&FORMAT=JSON","constellation":"radarsat-2","records":[{"OBJECT_NAME":"RADARSAT-2","OBJECT_ID":"2007-061A","EPOCH":"2026-07-12T12:10:22.944000","CLASSIFICATION_TYPE":"U","MEAN_MOTION":14.2998324,"ECCENTRICITY":0.0001333,"INCLINATION":98.5783,"RA_OF_ASC_NODE":200.0779,"ARG_OF_PERICENTER":83.6793,"MEAN_ANOMALY":276.4541,"EPHEMERIS_TYPE":0,"NORAD_CAT_ID":32382,"ELEMENT_SET_NO":999,"REV_AT_EPOCH":96957,"BSTAR":0.000074555,"MEAN_MOTION_DOT":0.00000149,"MEAN_MOTION_DDOT":0}]}
